NORAD_CAT_ID,OBJECT_NAME,OBJECT_TYPE,EPOCH,MEAN_MOTION,ECCENTRICITY,INCLINATION,RA_OF_ASC_NODE,ARG_OF_PERICENTER,MEAN_ANOMALY,BSTAR,MEAN_MOTION_DOT,MEAN_MOTION_DDOT,TLE_LINE0,TLE_LINE1,TLE_LINE2,SEMIMAJOR_AXIS,PERIOD,APOGEE,PERIGEE,DECAYED
52708.0,STARLINK-3962,PAYLOAD,2023-08-09 23:24:35,15.088421,9.93e-05,53.2164,46.1185,74.9988,285.1114,0.00062184,9.623e-05,0.0,0 STARLINK-3962,1 52708U 22053BE  23221.97540982  .00009623  00000-0  62184-3 0  9992,2 52708  53.2164  46.1185 0000993  74.9988 285.1114 15.08842100 68573,6917.874,95.437,540.426,539.052,0.0
52708.0,STARLINK-3962,PAYLOAD,2023-08-10 05:46:08,15.08837064,9.78e-05,53.2162,44.9282,72.7533,287.3566,0.00032669,4.915e-05,0.0,0 STARLINK-3962,1 52708U 22053BE  23222.24037128  .00004915  00000-0  32669-3 0  9990,2 52708  53.2162  44.9282 0000978  72.7533 287.3566 15.08837064 68613,6917.889,95.438,540.431,539.078,0.0
52708.0,STARLINK-3962,PAYLOAD,2023-08-11 18:19:59,15.08846109,0.0001127,53.2166,38.0876,78.4795,281.6323,0.00020813,3.027e-05,0.0,0 STARLINK-3962,1 52708U 22053BE  23223.76388888  .00003027  00000-0  20813-3 0  9991,2 52708  53.2166  38.0876 0001127  78.4795 281.6323 15.08846109 68843,6917.862,95.437,540.506,538.947,0.0
52708.0,STARLINK-3962,PAYLOAD,2023-08-12 18:10:46,15.08843815,0.0001111,53.2178,33.6268,82.3774,277.7344,6.7535e-05,7.87e-06,0.0,0 STARLINK-3962,1 52708U 22053BE  23224.75748653  .00000787  00000-0  67535-4 0  9994,2 52708  53.2178  33.6268 0001111  82.3774 277.7344 15.08843815 68992,6917.869,95.437,540.502,538.965,0.0
52708.0,STARLINK-3962,PAYLOAD,2023-08-13 10:04:38,15.08837623,0.0001446,53.2167,30.6538,78.7529,281.3625,-6.0087e-05,-1.244e-05,0.0,0 STARLINK-3962,1 52708U 22053BE  23225.41989001 -.00001244  00000-0 -60087-4 0  9998,2 52708  53.2167  30.6538 0001446  78.7529 281.3625 15.08837623 69090,6917.888,95.438,540.753,538.752,0.0
52708.0,STARLINK-3962,PAYLOAD,2023-08-14 17:52:20,15.0884943,8.36e-05,53.2173,24.7074,83.6359,276.4728,0.00014473,2.017e-05,0.0,0 STARLINK-3962,1 52708U 22053BE  23226.74468656  .00002017  00000-0  14473-3 0  9997,2 52708  53.2173  24.7074 0000836  83.6359 276.4728 15.08849430 69294,6917.852,95.437,540.295,539.138,0.0
52708.0,STARLINK-3962,PAYLOAD,2023-08-15 09:46:12,15.08841607,0.0001282,53.2165,21.7346,99.0567,261.057,0.00013014,1.784e-05,0.0,0 STARLINK-3962,1 52708U 22053BE  23227.40709072  .00001784  00000-0  13014-3 0  9991,2 52708  53.2165  21.7346 0001282  99.0567 261.0570 15.08841607 69396,6917.875,95.437,540.627,538.854,0.0
52708.0,STARLINK-3962,PAYLOAD,2023-08-16 22:20:05,15.08839116,0.0001628,53.2161,14.8937,90.3515,269.7664,0.00029206,4.363e-05,0.0,0 STARLINK-3962,1 52708U 22053BE  23228.93061542  .00004363  00000-0  29206-3 0  9999,2 52708  53.2161  14.8937 0001628  90.3515 269.7664 15.08839116 69629,6917.883,95.438,540.874,538.622,0.0
52708.0,STARLINK-3962,PAYLOAD,2023-08-18 09:18:34,15.08827712,7.69e-05,53.2177,8.3516,87.2169,272.8911,-1.9857e-05,-6.04e-06,0.0,0 STARLINK-3962,1 52708U 22053BE  23230.38789812 -.00000604  00000-0 -19857-4 0  9996,2 52708  53.2177   8.3516 0000769  87.2169 272.8911 15.08827712 69845,6917.918,95.438,540.315,539.251,0.0
52708.0,STARLINK-3962,PAYLOAD,2023-08-18 15:40:06,15.08841768,0.0001415,53.2153,7.1607,91.7504,268.3651,0.00012744,1.741e-05,0.0,0 STARLINK-3962,1 52708U 22053BE  23230.65285466  .00001741  00000-0  12744-3 0  9990,2 52708  53.2153   7.1607 0001415  91.7504 268.3651 15.08841768 69881,6917.875,95.437,540.719,538.761,0.0
52708.0,STARLINK-3962,PAYLOAD,2023-08-19 09:09:21,15.088323,8.18e-05,53.2174,3.894,68.1062,292.0017,2.327e-06,-2.51e-06,0.0,0 STARLINK-3962,1 52708U 22053BE  23231.38149728 -.00000251  00000-0  23270-5 0  9995,2 52708  53.2174   3.8940 0000818  68.1062 292.0017 15.08832300 69994,6917.904,95.438,540.335,539.203,0.0
52708.0,STARLINK-3962,PAYLOAD,2023-08-20 12:10:54,15.08841249,0.0001433,53.2166,358.8359,102.5188,257.5964,0.00017968,2.573e-05,0.0,0 STARLINK-3962,1 52708U 22053BE  23232.50757850  .00002573  00000-0  17968-3 0  9994,2 52708  53.2166 358.8359 0001433 102.5188 257.5964 15.08841249 70168,6917.877,95.437,540.733,538.75,0.0
52708.0,STARLINK-3962,PAYLOAD,2023-08-21 15:12:27,15.08852593,0.0001014,53.218,353.7809,96.8345,263.2763,0.00023641,3.478e-05,0.0,0 STARLINK-3962,1 52708U 22053BE  23233.63365264  .00003478  00000-0  23641-3 0  9993,2 52708  53.2180 353.7809 0001014  96.8345 263.2763 15.08852593 70337,6917.842,95.437,540.408,539.005,0.0
52708.0,STARLINK-3962,PAYLOAD,2023-08-22 08:41:42,15.08837851,0.0001141,53.218,350.5137,84.7564,275.3559,9.0433e-05,1.152e-05,0.0,0 STARLINK-3962,1 52708U 22053BE  23234.36230248  .00001152  00000-0  90433-4 0  9998,2 52708  53.2180 350.5137 0001141  84.7564 275.3559 15.08837851 70445,6917.887,95.438,540.541,538.963,0.0
52708.0,STARLINK-3962,PAYLOAD,2023-08-23 11:43:15,15.08842242,0.0001347,53.2182,345.4567,81.6161,278.4983,0.00012029,1.627e-05,0.0,0 STARLINK-3962,1 52708U 22053BE  23235.48837944  .00001627  00000-0  12029-3 0  9999,2 52708  53.2182 345.4567 0001347  81.6161 278.4983 15.08842242 70618,6917.874,95.437,540.67,538.807,0.0
52708.0,STARLINK-3962,PAYLOAD,2023-08-24 11:34:03,15.08842,0.0001191,53.2162,340.9988,70.5496,289.5625,-0.00010825,-2.01e-05,0.0,0 STARLINK-3962,1 52708U 22053BE  23236.48198376 -.00002010  00000-0 -10825-3 0  9990,2 52708  53.2162 340.9988 0001191  70.5496 289.5625 15.08842000 71392,6917.874,95.437,540.563,538.915,0.0
52708.0,STARLINK-3962,PAYLOAD,2023-08-25 13:00:13,15.08846355,0.0001227,53.216,336.2394,75.798,284.3148,0.00015228,2.137e-05,0.0,0 STARLINK-3962,1 52708U 22053BE  23237.54181910  .00002137  00000-0  15228-3 0  9994,2 52708  53.2160 336.2394 0001227  75.7980 284.3148 15.08846355 71552,6917.861,95.437,540.575,538.877,0.0
52708.0,STARLINK-3962,PAYLOAD,2023-08-25 17:46:22,15.08854032,0.0001105,53.2164,335.3472,97.6103,262.5015,0.00037928,5.756e-05,0.0,0 STARLINK-3962,1 52708U 22053BE  23237.74053556  .00005756  00000-0  37928-3 0  9991,2 52708  53.2164 335.3472 0001105  97.6103 262.5015 15.08854032 70953,6917.837,95.437,540.467,538.938,0.0
52708.0,STARLINK-3962,PAYLOAD,2023-08-26 09:40:14,15.08836646,0.000123,53.2187,332.3738,82.9642,277.149,9.6548e-05,1.249e-05,0.0,0 STARLINK-3962,1 52708U 22053BE  23238.40294453  .00001249  00000-0  96548-4 0  9995,2 52708  53.2187 332.3738 0001230  82.9642 277.1490 15.08836646 71056,6917.891,95.438,540.607,538.905,0.0
52708.0,STARLINK-3962,PAYLOAD,2023-08-26 11:15:37,15.08838921,0.0001322,53.2181,332.0767,71.611,288.5026,0.00012458,1.695e-05,0.0,0 STARLINK-3962,1 52708U 22053BE  23238.46918440  .00001695  00000-0  12458-3 0  9992,2 52708  53.2181 332.0767 0001322  71.6110 288.5026 15.08838921 71695,6917.884,95.438,540.663,538.834,0.0
52708.0,STARLINK-3962,PAYLOAD,2023-08-26 14:26:23,15.08842187,0.0001397,53.2165,331.479,97.3549,262.7602,0.0001865,2.682e-05,0.0,0 STARLINK-3962,1 52708U 22053BE  23238.60166212  .00002682  00000-0  18650-3 0  9997,2 52708  53.2165 331.4790 0001397  97.3549 262.7602 15.08842187 71715,6917.874,95.437,540.705,538.772,0.0
52708.0,STARLINK-3962,PAYLOAD,2023-08-27 09:31:01,15.08843375,0.0001415,53.2179,327.9067,105.4001,254.7148,0.0001238,1.683e-05,0.0,0 STARLINK-3962,1 52708U 22053BE  23239.39654205  .00001683  00000-0  12380-3 0  9992,2 52708  53.2179 327.9067 0001415 105.4001 254.7148 15.08843375 71831,6917.87,95.437,540.714,538.756,0.0
52708.0,STARLINK-3962,PAYLOAD,2023-08-27 15:52:33,15.08842639,0.0001388,53.2181,326.7193,104.0568,256.0579,0.00018291,2.624e-05,0.0,0 STARLINK-3962,1 52708U 22053BE  23239.66150313  .00002624  00000-0  18291-3 0  9996,2 52708  53.2181 326.7193 0001388 104.0568 256.0579 15.08842639 71243,6917.872,95.437,540.698,538.777,0.0
52708.0,STARLINK-3962,PAYLOAD,2023-08-28 09:21:48,15.08836781,0.0001336,53.2173,323.4521,93.9047,266.2098,7.4031e-05,8.9e-06,0.0,0 STARLINK-3962,1 52708U 22053BE  23240.39014757  .00000890  00000-0  74031-4 0  9997,2 52708  53.2173 323.4521 0001336  93.9047 266.2098 15.08836781 71356,6917.89,95.438,540.679,538.831,0.0
52708.0,STARLINK-3962,PAYLOAD,2023-08-28 15:43:21,15.08843192,0.0001424,53.2184,322.2632,98.8535,261.2618,0.00019436,2.807e-05,0.0,0 STARLINK-3962,1 52708U 22053BE  23240.65510548  .00002807  00000-0  19436-3 0  9992,2 52708  53.2184 322.2632 0001424  98.8535 261.2618 15.08843192 72024,6917.871,95.437,540.721,538.751,0.0
52708.0,STARLINK-3962,PAYLOAD,2023-08-29 13:58:44,15.08847264,0.0001388,53.2178,318.1002,94.0534,266.0617,0.00018645,2.681e-05,0.0,0 STARLINK-3962,1 52708U 22053BE  23241.58246395  .00002681  00000-0  18645-3 0  9992,2 52708  53.2178 318.1002 0001388  94.0534 266.0617 15.08847264 71539,6917.858,95.437,540.683,538.763,0.0
52708.0,STARLINK-3962,PAYLOAD,2023-08-30 04:17:13,15.0883766,0.0001451,53.2179,315.4248,93.6314,266.4844,3.522e-05,2.73e-06,0.0,0 STARLINK-3962,1 52708U 22053BE  23242.17862786  .00000273  00000-0  35220-4 0  9990,2 52708  53.2179 315.4248 0001451  93.6314 266.4844 15.08837660 71629,6917.888,95.438,540.756,538.749,0.0
52708.0,STARLINK-3962,PAYLOAD,2023-08-30 17:00:18,15.08845442,0.000146,53.2172,313.0442,87.0311,273.0848,0.0001452,2.024e-05,0.0,0 STARLINK-3962,1 52708U 22053BE  23242.70854566  .00002024  00000-0  14520-3 0  9991,2 52708  53.2172 313.0442 0001460  87.0311 273.0848 15.08845442 72330,6917.864,95.437,540.739,538.719,0.0
52708.0,STARLINK-3962,PAYLOAD,2023-08-31 16:51:04,15.08849852,4.67e-05,53.217,308.5848,106.0245,254.0799,0.00015974,2.256e-05,0.0,0 STARLINK-3962,1 52708U 22053BE  23243.70213900  .00002256  00000-0  15974-3 0  9994,2 52708  53.2170 308.5848 0000467 106.0245 254.0799 15.08849852 71850,6917.85,95.437,540.038,539.392,0.0
52708.0,STARLINK-3962,PAYLOAD,2023-09-01 10:20:20,15.08845635,0.0002073,53.2156,305.3119,82.4223,277.7005,0.00017717,2.533e-05,0.0,0 STARLINK-3962,1 52708U 22053BE  23244.43078759  .00002533  00000-0  17717-3 0  9991,2 52708  53.2156 305.3119 0002073  82.4223 277.7005 15.08845635 71967,6917.863,95.437,541.162,538.294,0.0
